[{"OBJECT_NAME":"TSAT-1A","OBJECT_ID":"2024-066A","EPOCH":"2026-03-09T22:56:57.116832","MEAN_MOTION":15.33219384,"ECCENTRICITY":0.00111833,"INCLINATION":45.6179,"RA_OF_ASC_NODE":302.0275,"ARG_OF_PERICENTER":264.5913,"MEAN_ANOMALY":95.3706,"EPHEMERIS_TYPE":0,"CLASSIFICATION_TYPE":"U","NORAD_CAT_ID":59442,"ELEMENT_SET_NO":999,"REV_AT_EPOCH":10653,"BSTAR":0.00047082724,"MEAN_MOTION_DOT":0.00015138,"MEAN_MOTION_DDOT":0},{"OBJECT_NAME":"STARLINK-35362","OBJECT_ID":"2025-224G","EPOCH":"2026-03-09T05:50:25.715616","MEAN_MOTION":15.3021877,"ECCENTRICITY":0.00012652,"INCLINATION":53.162,"RA_OF_ASC_NODE":13.5923,"ARG_OF_PERICENTER":231.4894,"MEAN_ANOMALY":128.5994,"EPHEMERIS_TYPE":0,"CLASSIFICATION_TYPE":"U","NORAD_CAT_ID":65888,"ELEMENT_SET_NO":999,"REV_AT_EPOCH":2475,"BSTAR":0.0015275517,"MEAN_MOTION_DOT":0.00045184,"MEAN_MOTION_DDOT":0}]
